CTC1_L_00610007-03
1 83416U 25082SR  26070.40840278  .00000000  00000+0  00000-0 0  9996
2 83416  60.0000 180.0000 0000000   0.0000 144.0000  5.03557230    19
CTC1_L_00610007-04
1 83417U 25432IW  26070.40840278  .00000000  00000+0  00000-0 0  9996
2 83417  60.0000 180.0000 0000000   0.0000 180.0000  5.03557230    10
CTC1_L_00610007-05
1 83418U 26210FL  26070.40840278  .00000000  00000+0  00000-0 0  9992
2 83418  60.0000 180.0000 0000000   0.0000 216.0000  5.03557230    11
CTC1_L_00610007-06
1 83419U 25992JA  26070.40840278  .00000000  00000+0  00000-0 0  9999
2 83419  60.0000 180.0000 0000000   0.0000 252.0000  5.03557230    12
CTC1_L_00610007-07
1 83420U 25554HF  26070.40840278  .00000000  00000+0  00000-0 0  9995
2 83420  60.0000 180.0000 0000000   0.0000 288.0000  5.03557230    13
CTC1_L_00610007-08
1 83421U 25131PT  26070.40840278  .00000000  00000+0  00000-0 0  9997
2 83421  60.0000 180.0000 0000000   0.0000 324.0000  5.03557230    15
CTC1_L_00610007-09
1 83422U 26235YB  26070.40840278  .00000000  00000+0  00000-0 0  9994
2 83422  60.0000 180.0000 0000000   0.0000   0.0000  5.03557230    17
CTC1_L_00610007-10
1 83423U 24263RY  26070.40840278  .00000000  00000+0  00000-0 0  9994
2 83423  60.0000 180.0000 0000000   0.0000  36.0000  5.03557230    17
CTC1_L_00610008-01
1 83424U 24653IR  26070.40840278  .00000000  00000+0  00000-0 0  9998
2 83424  60.0000 210.0000 0000000   0.0000  84.0000  5.03557230    15
CTC1_L_00610008-02
1 83425U 26701RP  26070.40840278  .00000000  00000+0  00000-0 0  9995
2 83425  60.0000 210.0000 0000000   0.0000 120.0000  5.03557230    17
CTC1_L_00610008-03
1 83426U 23666Z   26070.40840278  .00000000  00000+0  00000-0 0  9993
2 83426  60.0000 210.0000 0000000   0.0000 156.0000  5.03557230    17
CTC1_L_00610008-04
1 83427U 24722DV  26070.40840278  .00000000  00000+0  00000-0 0  9998
2 83427  60.0000 210.0000 0000000   0.0000 192.0000  5.03557230    18
CTC1_L_00610008-05
1 83428U 22147BK  26070.40840278  .00000000  00000+0  00000-0 0  9998
2 83428  60.0000 210.0000 0000000   0.0000 228.0000  5.03557230    19
CTC1_L_00610008-06
1 83429U 25053IL  26070.40840278  .00000000  00000+0  00000-0 0  9998
2 83429  60.0000 210.0000 0000000   0.0000 264.0000  5.03557230    10
CTC1_L_00610008-07
1 83430U 24525PQ  26070.40840278  .00000000  00000+0  00000-0 0  9993
2 83430  60.0000 210.0000 0000000   0.0000 300.0000  5.03557230    13
CTC1_L_00610008-08
1 83431U 24158ZG  26070.40840278  .00000000  00000+0  00000-0 0  9996
2 83431  60.0000 210.0000 0000000   0.0000 336.0000  5.03557230    13
CTC1_L_00610008-09
1 83432U 23389CT  26070.40840278  .00000000  00000+0  00000-0 0  9992
2 83432  60.0000 210.0000 0000000   0.0000  12.0000  5.03557230    15
CTC1_L_00610008-10
1 83433U 25235RI  26070.40840278  .00000000  00000+0  00000-0 0  9995
2 83433  60.0000 210.0000 0000000   0.0000  48.0000  5.03557230    15
CTC1_L_00610009-01
1 83434U 26865VZ  26070.40840278  .00000000  00000+0  00000-0 0  9996
2 83434  60.0000 240.0000 0000000   0.0000  96.0000  5.03557230    12
CTC1_L_00610009-02
1 83435U 24320VY  26070.40840278  .00000000  00000+0  00000-0 0  9991
2 83435  60.0000 240.0000 0000000   0.0000 132.0000  5.03557230    14
CTC1_L_00610009-03
1 83436U 25701NM  26070.40840278  .00000000  00000+0  00000-0 0  9996
2 83436  60.0000 240.0000 0000000   0.0000 168.0000  5.03557230    14
CTC1_L_00610009-04
1 83437U 25119MA  26070.40840278  .00000000  00000+0  00000-0 0  9990
2 83437  60.0000 240.0000 0000000   0.0000 204.0000  5.03557230    16
CTC1_L_00610009-05
1 83438U 26296AG  26070.40840278  .00000000  00000+0  00000-0 0  9998
2 83438  60.0000 240.0000 0000000   0.0000 240.0000  5.03557230    17
CTC1_L_00610009-06
1 83439U 26255YV  26070.40840278  .00000000  00000+0  00000-0 0  9994
2 83439  60.0000 240.0000 0000000   0.0000 276.0000  5.03557230    17
CTC1_L_00610009-07
1 83440U 22290PD  26070.40840278  .00000000  00000+0  00000-0 0  9991
2 83440  60.0000 240.0000 0000000   0.0000 312.0000  5.03557230    10
CTC1_L_00610009-08
1 83441U 23247XZ  26070.40840278  .00000000  00000+0  00000-0 0  9995
2 83441  60.0000 240.0000 0000000   0.0000 348.0000  5.03557230    10
CTC1_L_00610009-09
1 83442U 24028QS  26070.40840278  .00000000  00000+0  00000-0 0  9994
2 83442  60.0000 240.0000 0000000   0.0000  24.0000  5.03557230    12
CTC1_L_00610009-10
1 83443U 26522DM  26070.40840278  .00000000  00000+0  00000-0 0  9996
2 83443  60.0000 240.0000 0000000   0.0000  60.0000  5.03557230    13
CTC1_L_00610010-01
1 83444U 26087BT  26070.40840278  .00000000  00000+0  00000-0 0  9993
2 83444  60.0000 270.0000 0000000   0.0000 108.0000  5.03557230    10
CTC1_L_00610010-02
1 83445U 22897NQ  26070.40840278  .00000000  00000+0  00000-0 0  9999
2 83445  60.0000 270.0000 0000000   0.0000 144.0000  5.03557230    11
CTC1_L_00610010-03
1 83446U 25893KK  26070.40840278  .00000000  00000+0  00000-0 0  9999
2 83446  60.0000 270.0000 0000000   0.0000 180.0000  5.03557230    12
CTC1_L_00610010-04
1 83447U 22659BS  26070.40840278  .00000000  00000+0  00000-0 0  9997
2 83447  60.0000 270.0000 0000000   0.0000 216.0000  5.03557230    13
CTC1_L_00610010-05
1 83448U 26514QK  26070.40840278  .00000000  00000+0  00000-0 0  9992
2 83448  60.0000 270.0000 0000000   0.0000 252.0000  5.03557230    14
CTC1_L_00610010-06
1 83449U 22416LQ  26070.40840278  .00000000  00000+0  00000-0 0  9990
2 83449  60.0000 270.0000 0000000   0.0000 288.0000  5.03557230    14
CTC1_L_00610010-07
1 83450U 24249NA  26070.40840278  .00000000  00000+0  00000-0 0  9998
2 83450  60.0000 270.0000 0000000   0.0000 324.0000  5.03557230    17
CTC1_L_00610010-08
1 83451U 25263DL  26070.40840278  .00000000  00000+0  00000-0 0  9996
2 83451  60.0000 270.0000 0000000   0.0000   0.0000  5.03557230    19
CTC1_L_00610010-09
1 83452U 22872EF  26070.40840278  .00000000  00000+0  00000-0 0  9990
2 83452  60.0000 270.0000 0000000   0.0000  36.0000  5.03557230    19
CTC1_L_00610010-10
1 83453U 23676GU  26070.40840278  .00000000  00000+0  00000-0 0  9994
2 83453  60.0000 270.0000 0000000   0.0000  72.0000  5.03557230    10
CTC1_L_00610011-01
1 83454U 26981HO  26070.40840278  .00000000  00000+0  00000-0 0  9997
2 83454  60.0000 300.0000 0000000   0.0000 120.0000  5.03557230    19
CTC1_L_00610011-02
1 83455U 23781EY  26070.40840278  .00000000  00000+0  00000-0 0  9993
2 83455  60.0000 300.0000 0000000   0.0000 156.0000  5.03557230    19
CTC1_L_00610011-03
1 83456U 26463XG  26070.40840278  .00000000  00000+0  00000-0 0  9994
2 83456  60.0000 300.0000 0000000   0.0000 192.0000  5.03557230    10
CTC1_L_00610011-04
1 83457U 24558PX  26070.40840278  .00000000  00000+0  00000-0 0  9998
2 83457  60.0000 300.0000 0000000   0.0000 228.0000  5.03557230    11
CTC1_L_00610011-05
1 83458U 22427GD  26070.40840278  .00000000  00000+0  00000-0 0  9992
2 83458  60.0000 300.0000 0000000   0.0000 264.0000  5.03557230    12
CTC1_L_00610011-06
1 83459U 22850DP  26070.40840278  .00000000  00000+0  00000-0 0  9993
2 83459  60.0000 300.0000 0000000   0.0000 300.0000  5.03557230    14
CTC1_L_00610011-07
1 83460U 22910KA  26070.40840278  .00000000  00000+0  00000-0 0  9992
2 83460  60.0000 300.0000 0000000   0.0000 336.0000  5.03557230    15
CTC1_L_00610011-08
1 83461U 22582LI  26070.40840278  .00000000  00000+0  00000-0 0  9998
2 83461  60.0000 300.0000 0000000   0.0000  12.0000  5.03557230    17
CTC1_L_00610011-09
1 83462U 26288XB  26070.40840278  .00000000  00000+0  00000-0 0  9996
2 83462  60.0000 300.0000 0000000   0.0000  48.0000  5.03557230    17
CTC1_L_00610011-10
1 83463U 23231TO  26070.40840278  .00000000  00000+0  00000-0 0  9992
2 83463  60.0000 300.0000 0000000   0.0000  84.0000  5.03557230    18
CTC1_L_00610012-01
1 83464U 22412JW  26070.40840278  .00000000  00000+0  00000-0 0  9993
2 83464  60.0000 330.0000 0000000   0.0000 132.0000  5.03557230    16
CTC1_L_00610012-02
1 83465U 26528VK  26070.40840278  .00000000  00000+0  00000-0 0  9996
2 83465  60.0000 330.0000 0000000   0.0000 168.0000  5.03557230    16
CTC1_L_00610012-03
1 83466U 26343CL  26070.40840278  .00000000  00000+0  00000-0 0  9992
2 83466  60.0000 330.0000 0000000   0.0000 204.0000  5.03557230    18
CTC1_L_00610012-04
1 83467U 26356HN  26070.40840278  .00000000  00000+0  00000-0 0  9997
2 83467  60.0000 330.0000 0000000   0.0000 240.0000  5.03557230    19
CTC1_L_00610012-05
1 83468U 23808AD  26070.40840278  .00000000  00000+0  00000-0 0  9997
2 83468  60.0000 330.0000 0000000   0.0000 276.0000  5.03557230    19
CTC1_L_00610012-06
1 83469U 24975IN  26070.40840278  .00000000  00000+0  00000-0 0  9994
2 83469  60.0000 330.0000 0000000   0.0000 312.0000  5.03557230    11
CTC1_L_00610012-07
1 83470U 24159IW  26070.40840278  .00000000  00000+0  00000-0 0  9990
2 83470  60.0000 330.0000 0000000   0.0000 348.0000  5.03557230    12
CTC1_L_00610012-08
1 83471U 24908YG  26070.40840278  .00000000  00000+0  00000-0 0  9993
2 83471  60.0000 330.0000 0000000   0.0000  24.0000  5.03557230    14
CTC1_L_00610012-09
1 83472U 22179FD  26070.40840278  .00000000  00000+0  00000-0 0  9992
2 83472  60.0000 330.0000 0000000   0.0000  60.0000  5.03557230    15
CTC1_L_00610012-10
1 83473U 23901AC  26070.40840278  .00000000  00000+0  00000-0 0  9997
2 83473  60.0000 330.0000 0000000   0.0000  96.0000  5.03557230    15
